BEESAT-4                
1 41619U 16040W   21048.13845683  .00001800  00000-0  75003-4 0  9993
2 41619  97.2873 107.5363 0011846  43.9487 316.2691 15.24916875246670
CAS-2T & KS-1Q          
1 41847U 16066G   21048.39246551  .00000065  00000-0  20636-4 0  9995
2 41847  98.6196 106.9284 0364854 218.5440 138.9178 14.38146223224626
NAYIF-1 (EO-88)         
1 42017U 17008BX  21047.66075123  .00002326  00000-0  89129-4 0  9990
2 42017  97.3309 117.3900 0006496 162.7571 197.3890 15.27505194222813
ZHUHAI-1 02 (CAS-4B)    
1 42759U 17034B   21048.58786884  .00000321  00000-0  32748-4 0  9995
2 42759  43.0167 119.9943 0008118 137.6800   4.7376 15.10072442203029
ZHUHAI-1 01 (CAS-4A)    
1 42761U 17034D   21048.46163194  .00000348  00000-0  34346-4 0  9993
2 42761  43.0176 119.8267 0008886 139.9681  48.8100 15.10153564203001
MAX VALIER SAT          
1 42778U 17036P   21047.57670538  .00001208  00000-0  53879-4 0  9997
2 42778  97.2732 100.0637 0010597 237.8216 122.1994 15.23213363202885
RADFXSAT (FOX-1B)       
1 43017U 17073E   21048.28242045  .00000871  00000-0  72931-4 0  9997
2 43017  97.7158 316.9923 0255182 332.6792  26.1186 14.79319848175351
FOX-1D (AO-92)          
1 43137U 18004AC  21048.19398832  .00001303  00000-0  55409-4 0  9993
2 43137  97.4192 123.4222 0007288 275.5546  84.4860 15.24807714172321
DIWATA-2B               
1 43678U 18084H   21048.51914893  .00000457  00000-0  51150-4 0  9996
2 43678  97.9065 173.3183 0011502  88.0548 272.1974 14.91711486125556
ES'HAIL 2               
1 43700U 18090A   21048.28452243  .00000143  00000-0  00000+0 0  9994
2 43700   0.0153 118.0744 0002052 244.1421 273.4498  1.00272163  8408
FOX-1CLIFF (AO-95)      
1 43770U 18099N   21048.46360300  .00000429  00000-0  44097-4 0  9998
2 43770  97.6787 121.2347 0016015  98.9832 261.3202 14.95195327120521
ITASAT 1                
1 43786U 18099AE  21048.47394322  .00000638  00000-0  62576-4 0  9991
2 43786  97.6805 121.8390 0016719  92.7833 267.5302 14.95507473120558
JY1SAT (JO-97)          
1 43803U 18099AX  21048.18894497  .00000195  00000-0  22621-4 0  9992
2 43803  97.6765 121.3282 0016490  93.6103 266.7004 14.95725976120510
UWE-4                   
1 43880U 18111E   21048.18626412 -.00000131  00000-0 -64329-5 0  9996
2 43880  97.6947 317.9326 0012890 141.1375 219.0776 14.96728117115094
PSAT2 (NO-104)          
1 44354U 19036R   21048.48942940  .00011833  00000-0  16142-3 0  9997
2 44354  28.5268 204.7776 0341176  58.7592 304.5965 15.09514570 90798
BRICSAT2 (NO-103)       
1 44355U 19036S   21047.72868967  .00036386  00000-0  44329-3 0  9998
2 44355  28.5257 181.7547 0297457  96.1377 267.3187 15.20880325 90964
JAISAT-1                
1 44419U 19038F   21047.85532701  .00001524  00000-0  88728-4 0  9997
2 44419  97.5733  13.1507 0021634  12.6305 347.5463 15.13382184 89553
DUCHIFAT-3              
1 44854U 19089C   21048.46109144  .00000417  00000-0  39886-4 0  9996
2 44854  36.9678  90.1581 0008760 253.7596 106.2204 14.99329746 65086
RS-44 & BREEZE-KM R/B   
1 44909U 19096E   21047.36637720  .00000012  00000-0  41624-5 0  9994
2 44909  82.5226 193.2501 0217594  16.5000 344.3039 12.79708442 53350
ORBITAL FACTORY 2 (OF-2)
1 45113U 19071C   21048.31312547  .00002445  00000-0  82477-4 0  9990
2 45113  51.6416 259.6218 0012061 216.5561 143.4599 15.34787209 58710
HUSKYSAT-1              
1 45119U 19071J   21047.80852233  .00002929  00000-0  96270-4 0  9993
2 45119  51.6410 261.5007 0011477 210.9531 149.0776 15.34890527 58631
BY70-2                  
1 45857U 20042B   21048.52049500  .00000906  00000-0  13674-3 0  9996
2 45857  97.9935 125.5026 0010306 233.2432 126.7841 14.76689653 33845
SALSAT                  
1 46495U 20068K   21047.59323615 -.00000489  00000-0 -31369-4 0  9991
2 46495  97.6836 345.8907 0018314 116.2657 244.0451 15.03338251 21172
BY70-3                  
1 46839U 20079N   21048.43717479  .00002258  00000-0  73651-4 0  9998
2 46839  97.2524 124.6780 0005490 274.7173 213.9108 15.32814045 15810
RADFXSAT-2 (AO-109)     
1 47311U 21002C   21048.09537299  .00000820  00000-0  48351-4 0  9995
2 47311  60.6870  21.6108 0016443 319.5426  40.4437 15.21249608  4566
